*******************************************************************************
Ephemeris / WWW_USER Mon Jul 15 19:17:56 2024 Pasadena, USA      / Horizons    
*******************************************************************************
Target body name: (2018 YU2)                      {source: JPL#5}
Center body name: Earth (399)                     {source: DE441}
Center-site name: Gemini South Obs., Cerro Pachon
*******************************************************************************
Start time      : A.D. 2018-Dec-17 23:51:00.0000 UT      
Stop  time      : A.D. 2018-Dec-18 09:27:00.0000 UT      
Step-size       : 1 minutes
*******************************************************************************
Target pole/equ : undefined
Target radii    : undefined                                                    
Center geodetic : 289.2634, -30.2406227, 2.71233  {E-lon(deg),Lat(deg),Alt(km)}
Center cylindric: 289.2634,5517.21435,-3194.81213 {E-lon(deg),Dxy(km),Dz(km)}
Center pole/equ : ITRF93                          {East-longitude positive}
Center radii    : 6378.137, 6378.137, 6356.752 km {Equator_a, b, pole_c}       
Target primary  : Sun
Vis. interferer : MOON (R_eq= 1737.400) km        {source: DE441}
Rel. light bend : Sun                             {source: DE441}
Rel. lght bnd GM: 1.3271E+11 km^3/s^2                                          
Small-body perts: Yes                             {source: SB441-N16}
Atmos refraction: NO (AIRLESS)
RA format       : HMS
Time format     : CAL 
Calendar mode   : Mixed Julian/Gregorian
RTS-only print  : NO       
EOP file        : eop.240715.p241008                                           
EOP coverage    : DATA-BASED 1962-JAN-20 TO 2024-JUL-15. PREDICTS-> 2024-OCT-07
Units conversion: 1 au= 149597870.700 km, c= 299792.458 km/s, 1 day= 86400.0 s 
Table cut-offs 1: Elevation (-90.0deg=NO ),Airmass (>38.000=NO), Daylight (YES)
Table cut-offs 2: Solar elongation (  0.0,180.0=NO ),Local Hour Angle( 0.0=NO )
Table cut-offs 3: RA/DEC angular rate (     0.0=NO )                           
*******************************************************************************
Initial IAU76/J2000 heliocentric ecliptic osculating elements (au, days, deg.):
  EPOCH=  2458477.5 ! 2018-Dec-25.00 (TDB)         Residual RMS= .22887        
   EC= .1533598773405833   QR= .920984914841031    TP= 2458549.1486254167      
   OM= 279.4515303175068   W=  253.4059234937716   IN= 2.850769624588425       
  Equivalent ICRF heliocentric cartesian coordinates (au, au/d):
   X=-6.842297687009524E-02  Y= 9.429126817220428E-01  Z= 4.143187104036840E-01
  VX=-1.695115058702848E-02 VY=-2.997207899955317E-03 VZ=-2.239432528215744E-03
Asteroid physical parameters (km, seconds, rotational period in hours):        
   GM= n.a.                RAD= n.a.               ROTPER= n.a.                
   H= 26.5                 G= .150                 B-V= n.a.                   
                           ALBEDO= n.a.            STYP= n.a.                  
*******************************************************************************
 Date__(UT)__HR:MN     R.A._________(ICRF)_________DEC
******************************************************
$$SOE
 2018-Dec-18 01:54  m  07 26 16.839037 +30 55 27.96810
 2018-Dec-18 01:55  m  07 26 16.892256 +30 55 27.27842
 2018-Dec-18 01:56  m  07 26 16.945331 +30 55 26.58829
 2018-Dec-18 01:57  m  07 26 16.998261 +30 55 25.89770
 2018-Dec-18 01:58  m  07 26 17.051047 +30 55 25.20664
 2018-Dec-18 01:59  m  07 26 17.103690 +30 55 24.51511
 2018-Dec-18 02:00  m  07 26 17.156189 +30 55 23.82311
 2018-Dec-18 02:01  m  07 26 17.208544 +30 55 23.13063
 2018-Dec-18 02:02  m  07 26 17.260757 +30 55 22.43766
 2018-Dec-18 02:03  m  07 26 17.312827 +30 55 21.74421
 2018-Dec-18 02:04  m  07 26 17.364755 +30 55 21.05026
 2018-Dec-18 02:05  m  07 26 17.416541 +30 55 20.35582
 2018-Dec-18 02:06  m  07 26 17.468184 +30 55 19.66088
 2018-Dec-18 02:07  m  07 26 17.519686 +30 55 18.96544
 2018-Dec-18 02:08  m  07 26 17.571047 +30 55 18.26949
 2018-Dec-18 02:09  m  07 26 17.622267 +30 55 17.57302
 2018-Dec-18 02:10  m  07 26 17.673347 +30 55 16.87605
 2018-Dec-18 02:11  m  07 26 17.724285 +30 55 16.17855
 2018-Dec-18 02:12  m  07 26 17.775084 +30 55 15.48052
 2018-Dec-18 02:13  m  07 26 17.825743 +30 55 14.78197
 2018-Dec-18 02:14  m  07 26 17.876263 +30 55 14.08288
 2018-Dec-18 02:15  m  07 26 17.926643 +30 55 13.38326
 2018-Dec-18 02:16  m  07 26 17.976884 +30 55 12.68310
 2018-Dec-18 02:17  m  07 26 18.026987 +30 55 11.98239
 2018-Dec-18 02:18  m  07 26 18.076952 +30 55 11.28114
 2018-Dec-18 02:19  m  07 26 18.126778 +30 55 10.57933
 2018-Dec-18 02:20  m  07 26 18.176467 +30 55 09.87696
 2018-Dec-18 02:21  m  07 26 18.226019 +30 55 09.17404
 2018-Dec-18 02:22  m  07 26 18.275434 +30 55 08.47054
 2018-Dec-18 02:23  m  07 26 18.324712 +30 55 07.76648
 2018-Dec-18 02:24  m  07 26 18.373854 +30 55 07.06185
 2018-Dec-18 02:25  m  07 26 18.422860 +30 55 06.35664
 2018-Dec-18 02:26  m  07 26 18.471730 +30 55 05.65085
 2018-Dec-18 02:27  m  07 26 18.520465 +30 55 04.94447
 2018-Dec-18 02:28  m  07 26 18.569064 +30 55 04.23751
 2018-Dec-18 02:29  m  07 26 18.617530 +30 55 03.52995
 2018-Dec-18 02:30  m  07 26 18.665861 +30 55 02.82180
 2018-Dec-18 02:31  m  07 26 18.714058 +30 55 02.11305
 2018-Dec-18 02:32  m  07 26 18.762121 +30 55 01.40369
 2018-Dec-18 02:33  m  07 26 18.810051 +30 55 00.69372
 2018-Dec-18 02:34  m  07 26 18.857849 +30 54 59.98314
 2018-Dec-18 02:35  m  07 26 18.905514 +30 54 59.27195
 2018-Dec-18 02:36  m  07 26 18.953046 +30 54 58.56013
 2018-Dec-18 02:37  m  07 26 19.000447 +30 54 57.84769
 2018-Dec-18 02:38  m  07 26 19.047717 +30 54 57.13463
 2018-Dec-18 02:39  m  07 26 19.094855 +30 54 56.42093
 2018-Dec-18 02:40  m  07 26 19.141863 +30 54 55.70659
 2018-Dec-18 02:41  m  07 26 19.188741 +30 54 54.99162
 2018-Dec-18 02:42  m  07 26 19.235488 +30 54 54.27601
 2018-Dec-18 02:43  m  07 26 19.282106 +30 54 53.55974
 2018-Dec-18 02:44  m  07 26 19.328595 +30 54 52.84283
 2018-Dec-18 02:45  m  07 26 19.374955 +30 54 52.12526
 2018-Dec-18 02:46  m  07 26 19.421187 +30 54 51.40704
 2018-Dec-18 02:47  m  07 26 19.467291 +30 54 50.68815
 2018-Dec-18 02:48  m  07 26 19.513267 +30 54 49.96860
 2018-Dec-18 02:49  m  07 26 19.559116 +30 54 49.24837
 2018-Dec-18 02:50  m  07 26 19.604838 +30 54 48.52748
 2018-Dec-18 02:51  m  07 26 19.650433 +30 54 47.80591
 2018-Dec-18 02:52  m  07 26 19.695903 +30 54 47.08365
 2018-Dec-18 02:53  m  07 26 19.741247 +30 54 46.36072
 2018-Dec-18 02:54  m  07 26 19.786466 +30 54 45.63709
 2018-Dec-18 02:55  m  07 26 19.831560 +30 54 44.91278
 2018-Dec-18 02:56  m  07 26 19.876529 +30 54 44.18777
 2018-Dec-18 02:57  m  07 26 19.921375 +30 54 43.46206
 2018-Dec-18 02:58  m  07 26 19.966097 +30 54 42.73564
 2018-Dec-18 02:59  m  07 26 20.010696 +30 54 42.00853
 2018-Dec-18 03:00  m  07 26 20.055172 +30 54 41.28070
 2018-Dec-18 03:01  m  07 26 20.099526 +30 54 40.55216
 2018-Dec-18 03:02  m  07 26 20.143758 +30 54 39.82290
 2018-Dec-18 03:03  m  07 26 20.187869 +30 54 39.09292
 2018-Dec-18 03:04  m  07 26 20.231858 +30 54 38.36222
 2018-Dec-18 03:05  m  07 26 20.275727 +30 54 37.63079
 2018-Dec-18 03:06  m  07 26 20.319476 +30 54 36.89863
 2018-Dec-18 03:07  m  07 26 20.363105 +30 54 36.16574
 2018-Dec-18 03:08  m  07 26 20.406615 +30 54 35.43210
 2018-Dec-18 03:09  m  07 26 20.450006 +30 54 34.69773
 2018-Dec-18 03:10  m  07 26 20.493279 +30 54 33.96261
 2018-Dec-18 03:11  m  07 26 20.536434 +30 54 33.22674
 2018-Dec-18 03:12  m  07 26 20.579471 +30 54 32.49012
 2018-Dec-18 03:13  m  07 26 20.622392 +30 54 31.75275
 2018-Dec-18 03:14  m  07 26 20.665195 +30 54 31.01462
 2018-Dec-18 03:15  m  07 26 20.707883 +30 54 30.27572
 2018-Dec-18 03:16  m  07 26 20.750455 +30 54 29.53606
 2018-Dec-18 03:17  m  07 26 20.792912 +30 54 28.79563
 2018-Dec-18 03:18  m  07 26 20.835254 +30 54 28.05443
 2018-Dec-18 03:19  m  07 26 20.877482 +30 54 27.31245
 2018-Dec-18 03:20  m  07 26 20.919596 +30 54 26.56970
 2018-Dec-18 03:21  m  07 26 20.961597 +30 54 25.82616
 2018-Dec-18 03:22  m  07 26 21.003484 +30 54 25.08184
 2018-Dec-18 03:23  m  07 26 21.045260 +30 54 24.33672
 2018-Dec-18 03:24  m  07 26 21.086924 +30 54 23.59082
 2018-Dec-18 03:25  m  07 26 21.128476 +30 54 22.84412
 2018-Dec-18 03:26  m  07 26 21.169917 +30 54 22.09662
 2018-Dec-18 03:27  m  07 26 21.211248 +30 54 21.34832
 2018-Dec-18 03:28  m  07 26 21.252469 +30 54 20.59921
 2018-Dec-18 03:29  m  07 26 21.293580 +30 54 19.84930
 2018-Dec-18 03:30  m  07 26 21.334582 +30 54 19.09857
 2018-Dec-18 03:31  m  07 26 21.375476 +30 54 18.34703
 2018-Dec-18 03:32  m  07 26 21.416262 +30 54 17.59467
 2018-Dec-18 03:33  m  07 26 21.456940 +30 54 16.84149
 2018-Dec-18 03:34  m  07 26 21.497511 +30 54 16.08749
 2018-Dec-18 03:35  m  07 26 21.537976 +30 54 15.33265
 2018-Dec-18 03:36  m  07 26 21.578335 +30 54 14.57699
 2018-Dec-18 03:37  m  07 26 21.618588 +30 54 13.82049
 2018-Dec-18 03:38  m  07 26 21.658737 +30 54 13.06316
 2018-Dec-18 03:39  m  07 26 21.698780 +30 54 12.30499
 2018-Dec-18 03:40  m  07 26 21.738720 +30 54 11.54597
 2018-Dec-18 03:41  m  07 26 21.778557 +30 54 10.78611
 2018-Dec-18 03:42  m  07 26 21.818290 +30 54 10.02540
 2018-Dec-18 03:43  m  07 26 21.857921 +30 54 09.26384
 2018-Dec-18 03:44  m  07 26 21.897450 +30 54 08.50142
 2018-Dec-18 03:45  m  07 26 21.936878 +30 54 07.73815
 2018-Dec-18 03:46  m  07 26 21.976205 +30 54 06.97401
 2018-Dec-18 03:47  m  07 26 22.015431 +30 54 06.20901
 2018-Dec-18 03:48  m  07 26 22.054558 +30 54 05.44315
 2018-Dec-18 03:49  m  07 26 22.093585 +30 54 04.67641
 2018-Dec-18 03:50  m  07 26 22.132514 +30 54 03.90880
 2018-Dec-18 03:51  m  07 26 22.171344 +30 54 03.14032
 2018-Dec-18 03:52  m  07 26 22.210077 +30 54 02.37095
 2018-Dec-18 03:53  m  07 26 22.248712 +30 54 01.60071
 2018-Dec-18 03:54  m  07 26 22.287251 +30 54 00.82958
 2018-Dec-18 03:55  m  07 26 22.325694 +30 54 00.05756
 2018-Dec-18 03:56  m  07 26 22.364041 +30 53 59.28466
